start=new Date('2023-05-08T00:00:00.000Z').valueOf();
sats=[{"MEAN_ANOMALY":"137.4863","FILE":"3903413","MEAN_MOTION_DDOT":"0.0000000000000","MEAN_ELEMENT_THEORY":"SGP4","TLE_LINE1":"1 53234U 22084AX  23127.73704681 -.00000599  00000-0 -42024-4 0  9995","CENTER_NAME":"EARTH","ELEMENT_SET_NO":"999","PERIAPSIS":"559.462","CLASSIFICATION_TYPE":"U","MEAN_MOTION":"15.01258425","GP_ID":"231430013","NORAD_CAT_ID":"53234","RA_OF_ASC_NODE":"189.3794","DECAY_DATE":null,"BSTAR":"-0.00004202400000","REV_AT_EPOCH":"4475","RCS_SIZE":"LARGE","MEAN_MOTION_DOT":"-0.00000599","SEMIMAJOR_AXIS":"6941.152","EPHEMERIS_TYPE":"0","TIME_SYSTEM":"UTC","EPOCH":"2023-05-07T17:41:20.844384","SITE":"AFWTR","INCLINATION":"97.6553","COUNTRY_CODE":"US","OBJECT_NAME":"STARLINK-4368","OBJECT_ID":"2022-084AX","PERIOD":"95.920","ECCENTRICITY":"0.00051210","APOAPSIS":"566.571","ARG_OF_PERICENTER":"222.5965","TLE_LINE2":"2 53234  97.6553 189.3794 0005121 222.5965 137.4863 15.01258425 44750","REF_FRAME":"TEME","OBJECT_TYPE":"PAYLOAD","LAUNCH_DATE":"2022-07-22"},{"CENTER_NAME":"EARTH","TLE_LINE1":"1 53242U 22086A   23127.84780836  .00000972  00000-0  79130-4 0  9995","MEAN_ELEMENT_THEORY":"SGP4","MEAN_MOTION_DDOT":"0.0000000000000","FILE":"3903413","MEAN_ANOMALY":"273.8029","BSTAR":"0.00007913000000","DECAY_DATE":null,"RA_OF_ASC_NODE":"173.6756","NORAD_CAT_ID":"53242","GP_ID":"231431014","MEAN_MOTION":"15.08839558","PERIAPSIS":"539.051","CLASSIFICATION_TYPE":"U","ELEMENT_SET_NO":"999","SITE":"AFETR","EPOCH":"2023-05-07T20:20:50.642304","TIME_SYSTEM":"UTC","EPHEMERIS_TYPE":"0","SEMIMAJOR_AXIS":"6917.882","MEAN_MOTION_DOT":"0.00000972","RCS_SIZE":"LARGE","REV_AT_EPOCH":"4478","LAUNCH_DATE":"2022-07-24","OBJECT_TYPE":"PAYLOAD","REF_FRAME":"TEME","TLE_LINE2":"2 53242  53.2164 173.6756 0001005  86.3078 273.8029 15.08839558 44788","ARG_OF_PERICENTER":"86.3078","ECCENTRICITY":"0.00010050","APOAPSIS":"540.442","PERIOD":"95.438","COUNTRY_CODE":"US","INCLINATION":"53.2164","OBJECT_ID":"2022-086A","OBJECT_NAME":"STARLINK-4056"},{"TIME_SYSTEM":"UTC","SITE":"AFETR","EPOCH":"2023-05-07T20:22:49.099296","SEMIMAJOR_AXIS":"6917.873","EPHEMERIS_TYPE":"0","MEAN_MOTION_DOT":"0.00000480","RCS_SIZE":"LARGE","REV_AT_EPOCH":"4421","LAUNCH_DATE":"2022-07-24","REF_FRAME":"TEME","OBJECT_TYPE":"PAYLOAD","ARG_OF_PERICENTER":"96.4625","TLE_LINE2":"2 53243  53.2144 178.6808 0000947  96.4625 263.6475 15.08842502 44217","PERIOD":"95.437","OBJECT_NAME":"STARLINK-4047","COUNTRY_CODE":"US","INCLINATION":"53.2144","OBJECT_ID":"2022-086B","ECCENTRICITY":"0.00009470","APOAPSIS":"540.393","CENTER_NAME":"EARTH","TLE_LINE1":"1 53243U 22086B   23127.84917939  .00000480  00000-0  48231-4 0  9994","MEAN_MOTION_DDOT":"0.0000000000000","MEAN_ELEMENT_THEORY":"SGP4","MEAN_ANOMALY":"263.6475","FILE":"3903336","BSTAR":"0.00004823100000","DECAY_DATE":null,"RA_OF_ASC_NODE":"178.6808","NORAD_CAT_ID":"53243","CLASSIFICATION_TYPE":"U","PERIAPSIS":"539.083","ELEMENT_SET_NO":"999","GP_ID":"231405595","MEAN_MOTION":"15.08842502"},{"MEAN_MOTION_DOT":"0.00002029","RCS_SIZE":"LARGE","REV_AT_EPOCH":"4421","TIME_SYSTEM":"UTC","SITE":"AFETR","EPOCH":"2023-05-07T20:06:55.231200","SEMIMAJOR_AXIS":"6917.861","EPHEMERIS_TYPE":"0","ARG_OF_PERICENTER":"77.7213","TLE_LINE2":"2 53244  53.2155 178.7284 0001269  77.7213 282.3921 15.08846330 44219","PERIOD":"95.437","INCLINATION":"53.2155","COUNTRY_CODE":"US","OBJECT_ID":"2022-086C","OBJECT_NAME":"STARLINK-4125","ECCENTRICITY":"0.00012690","APOAPSIS":"540.604","LAUNCH_DATE":"2022-07-24","REF_FRAME":"TEME","OBJECT_TYPE":"PAYLOAD","MEAN_MOTION_DDOT":"0.0000000000000","MEAN_ELEMENT_THEORY":"SGP4","MEAN_ANOMALY":"282.3921","FILE":"3903336","TLE_LINE1":"1 53244U 22086C   23127.83813925  .00002029  00000-0  14549-3 0  9999","CENTER_NAME":"EARTH","NORAD_CAT_ID":"53244","PERIAPSIS":"538.848","CLASSIFICATION_TYPE":"U","ELEMENT_SET_NO":"999","GP_ID":"231405587","MEAN_MOTION":"15.08846330","DECAY_DATE":null,"BSTAR":"0.00014549000000","RA_OF_ASC_NODE":"178.7284"},{"RA_OF_ASC_NODE":"178.6932","BSTAR":"0.00009305700000","DECAY_DATE":null,"MEAN_MOTION":"15.08840763","GP_ID":"231405277","ELEMENT_SET_NO":"999","CLASSIFICATION_TYPE":"U","PERIAPSIS":"538.962","NORAD_CAT_ID":"53245","CENTER_NAME":"EARTH","TLE_LINE1":"1 53245U 22086D   23127.84549997  .00001194  00000-0  93057-4 0  9990","FILE":"3903336","MEAN_ANOMALY":"271.1597","MEAN_ELEMENT_THEORY":"SGP4","MEAN_MOTION_DDOT":"0.0000000000000","OBJECT_TYPE":"PAYLOAD","REF_FRAME":"TEME","LAUNCH_DATE":"2022-07-24","ECCENTRICITY":"0.00011290","APOAPSIS":"540.524","COUNTRY_CODE":"US","INCLINATION":"53.2141","OBJECT_NAME":"STARLINK-4124","OBJECT_ID":"2022-086D","PERIOD":"95.438","TLE_LINE2":"2 53245  53.2141 178.6932 0001129  88.9525 271.1597 15.08840763 44218","ARG_OF_PERICENTER":"88.9525","EPHEMERIS_TYPE":"0","SEMIMAJOR_AXIS":"6917.878","EPOCH":"2023-05-07T20:17:31.197408","SITE":"AFETR","TIME_SYSTEM":"UTC","REV_AT_EPOCH":"4421","MEAN_MOTION_DOT":"0.00001194","RCS_SIZE":"LARGE"},{"CENTER_NAME":"EARTH","TLE_LINE1":"1 53246U 22086E   23127.84182463  .00001464  00000-0  11006-3 0  9995","MEAN_MOTION_DDOT":"0.0000000000000","MEAN_ELEMENT_THEORY":"SGP4","MEAN_ANOMALY":"299.5483","FILE":"3903413","DECAY_DATE":null,"BSTAR":"0.00011006000000","RA_OF_ASC_NODE":"178.7140","NORAD_CAT_ID":"53246","ELEMENT_SET_NO":"999","CLASSIFICATION_TYPE":"U","PERIAPSIS":"539.052","MEAN_MOTION":"15.08841636","GP_ID":"231430515","TIME_SYSTEM":"UTC","EPOCH":"2023-05-07T20:12:13.648032","SITE":"AFETR","SEMIMAJOR_AXIS":"6917.875","EPHEMERIS_TYPE":"0","RCS_SIZE":"LARGE","MEAN_MOTION_DOT":"0.00001464","REV_AT_EPOCH":"4360","LAUNCH_DATE":"2022-07-24","REF_FRAME":"TEME","OBJECT_TYPE":"PAYLOAD","ARG_OF_PERICENTER":"60.5609","TLE_LINE2":"2 53246  53.2154 178.7140 0000995  60.5609 299.5483 15.08841636 43604","COUNTRY_CODE":"US","INCLINATION":"53.2154","OBJECT_ID":"2022-086E","OBJECT_NAME":"STARLINK-4131","PERIOD":"95.437","ECCENTRICITY":"0.00009950","APOAPSIS":"540.429"},{"CENTER_NAME":"EARTH","TLE_LINE1":"1 53247U 22086F   23127.86254851  .00001676  00000-0  12333-3 0  9998","FILE":"3903413","MEAN_ANOMALY":"284.2816","MEAN_ELEMENT_THEORY":"SGP4","MEAN_MOTION_DDOT":"0.0000000000000","RA_OF_ASC_NODE":"173.7990","DECAY_DATE":null,"BSTAR":"0.00012333000000","GP_ID":"231431265","MEAN_MOTION":"15.08843777","PERIAPSIS":"538.963","CLASSIFICATION_TYPE":"U","ELEMENT_SET_NO":"999","NORAD_CAT_ID":"53247","EPHEMERIS_TYPE":"0","SEMIMAJOR_AXIS":"6917.869","SITE":"AFETR","EPOCH":"2023-05-07T20:42:04.191264","TIME_SYSTEM":"UTC","REV_AT_EPOCH":"4478","RCS_SIZE":"LARGE","MEAN_MOTION_DOT":"0.00001676","OBJECT_TYPE":"PAYLOAD","REF_FRAME":"TEME","LAUNCH_DATE":"2022-07-24","APOAPSIS":"540.504","ECCENTRICITY":"0.00011140","PERIOD":"95.437","COUNTRY_CODE":"US","OBJECT_ID":"2022-086F","INCLINATION":"53.2147","OBJECT_NAME":"STARLINK-4061","TLE_LINE2":"2 53247  53.2147 173.7990 0001114  75.8300 284.2816 15.08843777 44785","ARG_OF_PERICENTER":"75.8300"},{"LAUNCH_DATE":"2022-07-24","REF_FRAME":"TEME","OBJECT_TYPE":"PAYLOAD","ARG_OF_PERICENTER":"79.1096","TLE_LINE2":"2 53248  53.2160 173.7751 0001388  79.1096 281.0052 15.08830940 44783","PERIOD":"95.438","COUNTRY_CODE":"US","OBJECT_NAME":"STARLINK-4135","INCLINATION":"53.2160","OBJECT_ID":"2022-086G","APOAPSIS":"540.733","ECCENTRICITY":"0.00013880","TIME_SYSTEM":"UTC","SITE":"AFETR","EPOCH":"2023-05-07T20:26:11.032512","SEMIMAJOR_AXIS":"6917.908","EPHEMERIS_TYPE":"0","RCS_SIZE":"LARGE","MEAN_MOTION_DOT":"0.00001326","REV_AT_EPOCH":"4478","BSTAR":"0.00010141000000","DECAY_DATE":null,"RA_OF_ASC_NODE":"173.7751","NORAD_CAT_ID":"53248","CLASSIFICATION_TYPE":"U","PERIAPSIS":"538.813","ELEMENT_SET_NO":"999","GP_ID":"231430014","MEAN_MOTION":"15.08830940","CENTER_NAME":"EARTH","TLE_LINE1":"1 53248U 22086G   23127.85151658  .00001326  00000-0  10141-3 0  9996","MEAN_MOTION_DDOT":"0.0000000000000","MEAN_ELEMENT_THEORY":"SGP4","MEAN_ANOMALY":"281.0052","FILE":"3903413"},{"REV_AT_EPOCH":"4448","MEAN_MOTION_DOT":"0.00002708","RCS_SIZE":"LARGE","SEMIMAJOR_AXIS":"6917.849","EPHEMERIS_TYPE":"0","TIME_SYSTEM":"UTC","EPOCH":"2023-05-07T09:21:44.165664","SITE":"AFETR","COUNTRY_CODE":"US","OBJECT_NAME":"STARLINK-4128","INCLINATION":"53.2159","OBJECT_ID":"2022-086H","PERIOD":"95.437","APOAPSIS":"540.462","ECCENTRICITY":"0.00010810","ARG_OF_PERICENTER":"98.0818","TLE_LINE2":"2 53249  53.2159 170.7337 0001081  98.0818 262.0297 15.08850297 44485","REF_FRAME":"TEME","OBJECT_TYPE":"PAYLOAD","LAUNCH_DATE":"2022-07-24","MEAN_ANOMALY":"262.0297","FILE":"3903215","MEAN_MOTION_DDOT":"0.0000000000000","MEAN_ELEMENT_THEORY":"SGP4","TLE_LINE1":"1 53249U 22086H   23127.39009451  .00002708  00000-0  18810-3 0  9995","CENTER_NAME":"EARTH","ELEMENT_SET_NO":"999","PERIAPSIS":"538.966","CLASSIFICATION_TYPE":"U","MEAN_MOTION":"15.08850297","GP_ID":"231399435","NORAD_CAT_ID":"53249","RA_OF_ASC_NODE":"170.7337","BSTAR":"0.00018810000000","DECAY_DATE":null},{"MEAN_MOTION_DOT":"0.00003590","RCS_SIZE":"LARGE","REV_AT_EPOCH":"4448","TIME_SYSTEM":"UTC","SITE":"AFETR","EPOCH":"2023-05-07T09:27:02.412288","SEMIMAJOR_AXIS":"6917.847","EPHEMERIS_TYPE":"0","ARG_OF_PERICENTER":"80.0794","TLE_LINE2":"2 53250  53.2145 170.7219 0001190  80.0794 280.0333 15.08851017 44488","PERIOD":"95.437","COUNTRY_CODE":"US","OBJECT_ID":"2022-086J","INCLINATION":"53.2145","OBJECT_NAME":"STARLINK-4059","ECCENTRICITY":"0.00011900","APOAPSIS":"540.535","LAUNCH_DATE":"2022-07-24","REF_FRAME":"TEME","OBJECT_TYPE":"PAYLOAD","MEAN_MOTION_DDOT":"0.0000000000000","MEAN_ELEMENT_THEORY":"SGP4","MEAN_ANOMALY":"280.0333","FILE":"3903215","TLE_LINE1":"1 53250U 22086J   23127.39377792  .00003590  00000-0  24345-3 0  9993","CENTER_NAME":"EARTH","NORAD_CAT_ID":"53250","CLASSIFICATION_TYPE":"U","PERIAPSIS":"538.888","ELEMENT_SET_NO":"999","GP_ID":"231399686","MEAN_MOTION":"15.08851017","DECAY_DATE":null,"BSTAR":"0.00024345000000","RA_OF_ASC_NODE":"170.7219"}];
